[{"OBJECT_NAME":"HORS 2","OBJECT_ID":"2023-091AG","EPOCH":"2026-03-09T22:11:34.810944","MEAN_MOTION":15.2928008,"ECCENTRICITY":0.00098173,"INCLINATION":97.5195,"RA_OF_ASC_NODE":134.7443,"ARG_OF_PERICENTER":79.3164,"MEAN_ANOMALY":280.9181,"EPHEMERIS_TYPE":0,"CLASSIFICATION_TYPE":"U","NORAD_CAT_ID":57196,"ELEMENT_SET_NO":999,"REV_AT_EPOCH":14934,"BSTAR":0.00059338338,"MEAN_MOTION_DOT":0.00016821,"MEAN_MOTION_DDOT":0},{"OBJECT_NAME":"STARLINK-32909","OBJECT_ID":"2025-024R","EPOCH":"2026-03-09T02:33:02.283552","MEAN_MOTION":15.27571188,"ECCENTRICITY":0.00014763,"INCLINATION":43.0022,"RA_OF_ASC_NODE":328.9255,"ARG_OF_PERICENTER":288.4583,"MEAN_ANOMALY":71.6108,"EPHEMERIS_TYPE":0,"CLASSIFICATION_TYPE":"U","NORAD_CAT_ID":62894,"ELEMENT_SET_NO":999,"REV_AT_EPOCH":6217,"BSTAR":0.0011612019,"MEAN_MOTION_DOT":0.00031821,"MEAN_MOTION_DDOT":0}]
